ELFIN-B                 
1 43616U 18070D   21052.30538552  .00008651  00000-0  19557-3 0  9997
2 43616  93.0196 257.7817 0017336  92.8962 267.4279 15.43009830136856
ELFIN-A                 
1 43617U 18070E   21052.55550852  .00009102  00000-0  20341-3 0  9997
2 43617  93.0248 258.6219 0016653  89.2960 271.0205 15.43360317136906
CUBEBEL-1 (BSUSAT-1)    
1 43666U 18083E   21052.58383212  .00001563  00000-0  77967-4 0  9992
2 43666  97.4682  82.3618 0013938 206.6930 252.5720 15.18928970128421
CICERO 10               
1 43690U 18088A   21052.32996954  .00001529  00000-0  67226-4 0  9998
2 43690  85.0349 274.2645 0016628 113.2274 247.0721 15.20860205126579
IRVINE01                
1 43693U 18088D   21052.54891006  .00005254  00000-0  21096-3 0  9990
2 43693  85.0319 271.9364 0019127  92.6303 267.7130 15.24532173126770
PROXIMA I               
1 43694U 18088E   21052.56308434  .00001486  00000-0  61860-4 0  9998
2 43694  85.0290 272.0128 0021103  87.2092 273.1565 15.22588926126746
PROXIMA II              
1 43696U 18088G   21052.36405501  .00001393  00000-0  57865-4 0  9998
2 43696  85.0291 272.1514 0021162  87.8084 272.5582 15.22587056126702
FACSAT-1                
1 43721U 18096C   21052.53210488  .00002230  00000-0  83521-4 0  9992
2 43721  97.3949 130.5553 0015872 327.0278 147.5717 15.28249049124412
CENTAURI-2              
1 43722U 18096D   21052.49344100  .00003931  00000-0  14128-3 0  9992
2 43722  97.3975 131.0986 0015699 325.7886  34.2341 15.29128778124438
INNOSAT-2               
1 43738U 18096V   21052.47933653  .00004235  00000-0  13777-3 0  9991
2 43738  97.4013 134.2059 0020998 327.8340 157.8387 15.32234040124639
SIRION PATHFINDER-2     
1 43759U 18099B   21052.50509411 -.00000026  00000-0  28115-5 0  9991
2 43759  97.6772 125.5522 0015877  73.5771 286.7180 14.95431190121157
CORVUS BC4              
1 43767U 18099K   21052.47237831  .00000318  00000-0  34293-4 0  9996
2 43767  97.6753 124.6521 0013226  79.7741 280.4978 14.94860533121102
MOVE-II                 
1 43780U 18099Y   21052.48465164  .00001145  00000-0  10775-3 0  9991
2 43780  97.6796 125.5827 0015049  84.3906 275.9031 14.95736040121131
SPACEBEE-7              
1 43816U 18099BL  21052.44618028  .00000122  00000-0  16019-4 0  9998
2 43816  97.6809 126.0815 0014583  69.3504 290.9279 14.95969002120718
SPACEBEE-5              
1 43817U 18099BM  21052.47133187  .00001672  00000-0  15023-3 0  9994
2 43817  97.6880 127.0469 0014055  70.7077 289.5664 14.96958093120754
SPACEBEE-6              
1 43818U 18099BN  21052.43676917  .00000509  00000-0  50080-4 0  9995
2 43818  97.6834 126.3616 0014620  69.3684 290.9104 14.96274560120874
SHIELDS 1               
1 43850U 18104B   21052.13390640  .00000743  00000-0  31000-4 0  9992
2 43850  85.0314  10.8919 0012855 230.7660 129.2441 15.21701016121287
STF-1                   
1 43852U 18104D   21052.33309377  .00001946  00000-0  83389-4 0  9996
2 43852  85.0354  11.4196 0011978 246.9697 113.0283 15.22006685121298
ZACUBE-2                
1 43907U 18111AH  21052.58865469  .00000766  00000-0  33372-4 0  9997
2 43907  97.2451 310.5498 0021044 348.2307 106.0855 15.24968182119979
LUME 1                  
1 43908U 18111AJ  21052.13553135  .00001634  00000-0  66392-4 0  9996
2 43908  97.2461 310.5099 0020457 348.3681  11.7082 15.25778599119933
AOBA VELOX-IV           
1 43940U 19003J   21052.56510996  .00004690  00000-0  18195-3 0  9990
2 43940  97.1963 100.9806 0024602  63.2152 297.1600 15.26298959116621
CATSAT-2                
1 44029U 98067PV  21052.21903342  .00163705  00000-0  63564-3 0  9992
2 44029  51.6376 121.9359 0004863 338.5447  21.5352 15.86140393117663
DELPHINI                
1 44030U 98067PW  21052.24209057  .00306907  48669-4  72713-3 0  9995
2 44030  51.6253 114.9530 0006542   0.7189 359.3827 15.96191556117723
UNITE                   
1 44031U 98067PX  21052.33909374  .00031870  00000-0  26532-3 0  9990
2 44031  51.6365 141.5494 0002647 305.1184  54.9565 15.69815174117380
CATSAT-1                
1 44033U 98067PZ  21052.46943620  .00108662  00000-0  42546-3 0  9995
2 44033  51.6381 120.6165 0004938 345.9007  14.1859 15.86144289117615
RAAVANA-1               
1 44329U 98067QE  21052.34486521  .00038696  00000-0  35746-3 0  9995
2 44329  51.6360 159.6902 0004327 224.9879 135.0767 15.67163027 95892
UGUISU                  
1 44330U 98067QF  21052.31509104  .00038025  00000-0  35479-3 0  9996
2 44330  51.6333 160.1767 0004348 223.8019 136.2632 15.66923494 95869
NEPALISAT-1             
1 44331U 98067QG  21052.33658673  .00038206  00000-0  35340-3 0  9993
2 44331  51.6332 159.5710 0004348 227.7235 132.3393 15.67136234 95884
SPOOQY-1                
1 44332U 98067QH  21052.56228007  .00036797  00000-0  34581-3 0  9992
2 44332  51.6346 158.8525 0003690 231.3225 128.7441 15.66763636 95878
SPACEBEE-9              
1 44370U 19037F   21052.33806917  .00027574  00000-0  47407-3 0  9995
2 44370  45.0024 158.3093 0012262 248.9277 111.0304 15.50599890 93122
SPACEBEE-8              
1 44371U 19037G   21052.28464255  .00107245  00000-0  96328-3 0  9995
2 44371  45.0015 135.8779 0010750 319.5177  40.4920 15.67178036 93388
IOD-1 GEMS              
1 44385U 98067QK  21052.53506076  .00158302  00000-0  71670-3 0  9999
2 44385  51.6339 145.9199 0002842 318.1303  41.9482 15.82951898 93563
MOVE-IIB                
1 44398U 19038N   21052.60593201  .00002215  00000-0  12781-3 0  9997
2 44398  97.5665  17.2673 0024711 353.3225   6.7676 15.13168814 90247
SONATE                  
1 44400U 19038Q   21052.60135657  .00001020  00000-0  62320-4 0  9996
2 44400  97.5724  17.2149 0025062 352.6700   7.4159 15.12329224 90220
LUCKY-7                 
1 44406U 19038W   21052.36947263  .00001219  00000-0  73045-4 0  9995
2 44406  97.5748  17.1815 0024192 352.6236   7.4635 15.12677793 90190
BEESAT 9                
1 44412U 19038AC  21052.54292576  .00001615  00000-0  94980-4 0  9993
2 44412  97.5735  17.3524 0022362 357.8092   2.3037 15.12912332 89926
JAISAT-1                
1 44419U 19038F   21052.15303615  .00001382  00000-0  80837-4 0  9991
2 44419  97.5737  17.4205 0021198 357.9231   2.1909 15.13393404 90207
SWIATOWID               
1 44426U 98067QL  21052.53665723  .00326883  51545-4  96485-3 0  9996
2 44426  51.6329 140.3074 0005145 341.3844 143.2420 15.92075594 93644
KRAKSAT                 
1 44427U 98067QM  21052.58724359  .00019686  00000-0  22528-3 0  9996
2 44427  51.6390 167.3705 0002514 176.7090 196.3965 15.62140600 93330
VCC A                   
1 44428U 98067QN  21052.34268170  .00035238  00000-0  34241-3 0  9991
2 44428  51.6367 162.7404 0001853 201.3526 158.7393 15.65956651 93379
ENTRYSAT                
1 44429U 98067QP  21052.58259765  .00050350  00000-0  41703-3 0  9991
2 44429  51.6326 156.7431 0001273 220.2256 139.8647 15.69723953 93478
VCC C                   
1 44430U 98067QQ  21052.32513717  .00085251  00000-0  53538-3 0  9992
2 44430  51.6306 152.0004 0002183 298.0875  61.9904 15.76010874 92349
VCC B                   
1 44431U 98067QR  21052.58087504  .00038297  00000-0  36794-3 0  9994
2 44431  51.6342 161.2711 0001912 202.2579 157.8334 15.66198799 93350
DUCHIFAT-3              
1 44854U 19089C   21052.39027390  .00000509  00000-0  47234-4 0  9993
2 44854  36.9678  66.9288 0009166 280.7274  79.2467 14.99334724 65672
EYESAT-NANO             
1 44877U 19092E   21052.45521817  .00001815  00000-0  93626-4 0  9999
2 44877  97.4569 237.7830 0012218 229.4149 130.6022 15.17564055 65348
ORBITAL FACTORY 2 (OF-2)
1 45113U 19071C   21052.54543305  .00003474  00000-0  11232-3 0  9991
2 45113  51.6410 239.1307 0011924 232.2426 127.7476 15.34817929 59362
M2 PATHFINDER           
1 45727U 20037E   21052.47843937 -.00000077  00000-0 -22134-5 0  9995
2 45727  97.7055 232.8497 0012553 188.4777 171.6226 14.91317919 35135
NETSAT-4                
1 46504U 20068U   21052.58630109 -.00000024  00000-0  27529-5 0  9994
2 46504  97.6751 350.4871 0009981 137.9730 222.2297 15.01950679 21845
NETSAT-3                
1 46505U 20068V   21052.05691900 -.00000054  00000-0  49979-6 0  9990
2 46505  97.6765 349.9535 0009249 135.7420 224.4534 15.01919298 21772
NETSAT-1                
1 46506U 20068W   21052.26055210 -.00000053  00000-0  52371-6 0  9991
2 46506  97.6775 350.1431 0008664 132.0792 228.1168 15.01892097 21800
NETSAT-2                
1 46507U 20068X   21052.06239942 -.00000049  00000-0  86975-6 0  9998
2 46507  97.6781 349.9481 0008875 131.6288 228.5693 15.01872689 21721
SPOC                    
1 46921U 98067RR  21052.39389147  .00011425  00000-0  19336-3 0  9994
2 46921  51.6420 193.8193 0001952  12.9713 347.1326 15.52055478 16821
BOBCAT-1                
1 46922U 98067RS  21052.43457388  .00015393  00000-0  25147-3 0  9998
2 46922  51.6421 193.3458 0001547  11.9412 348.1614 15.52749051 16791
NEUTRON-1               
1 46923U 98067RT  21052.40055780  .00011685  00000-0  19834-3 0  9992
2 46923  51.6412 193.8624 0001951  28.0106 332.0989 15.51948926 16855
1998-067RU              
1 46924U 98067RU  21052.39487749  .00025371  00000-0  39111-3 0  9992
2 46924  51.6405 193.0745 0001307  61.3255 298.7867 15.53997582 16839
DESCENT                 
1 46927U 98067RX  21052.59687821  .00012397  00000-0  21006-3 0  9998
2 46927  51.6412 192.9224 0002174  51.4578 308.6607 15.51933252 16791
